{
  "type": "FeatureCollection",
  "features": [
    {
      "type": "Feature",
      "properties": {
        "norad_id": 67054,
        "name": "STARLINK-35754",
        "group": "last-30-days",
        "lat": -19.723595038577468,
        "lon": -37.81333020453453,
        "alt_km": 330.522190508992,
        "timestamp": "2025-12-22T22:44:19.653987+00:00",
        "meta_object_name": "STARLINK-35754",
        "meta_object_id": "2025-294AA",
        "meta_epoch": "2025-12-22T14:00:01.999872",
        "meta_mean_motion": 15.82111968,
        "meta_eccentricity": 0.00014028,
        "meta_inclination": 43.0001,
        "meta_ra_of_asc_node": 121.7889,
        "meta_arg_of_pericenter": 274.4624,
        "meta_mean_anomaly": 19.9075,
        "meta_ephemeris_type": 0,
        "meta_classification_type": "U",
        "meta_norad_cat_id": 67054,
        "meta_element_set_no": 999,
        "meta_rev_at_epoch": 169,
        "meta_bstar": -0.010562611,
        "meta_mean_motion_dot": -0.01944125,
        "meta_mean_motion_ddot": 0,
        "tle_line1": "1 67054U 25294AA  25356.58335648 -.01944125  00000+0 -10563-1 0  9990",
        "tle_line2": "2 67054  43.0001 121.7889 0001402 274.4624  19.9075 15.82111968  1693"
      },
      "geometry": {
        "type": "Point",
        "coordinates": [
          -37.81333020453453,
          -19.723595038577468
        ]
      }
    },
    {
      "type": "Feature",
      "properties": {
        "norad_id": 67055,
        "name": "STARLINK-35790",
        "group": "last-30-days",
        "lat": -21.18517221947179,
        "lon": -35.86937095408812,
        "alt_km": 330.56575965155025,
        "timestamp": "2025-12-22T22:44:19.653998+00:00",
        "meta_object_name": "STARLINK-35790",
        "meta_object_id": "2025-294AB",
        "meta_epoch": "2025-12-22T14:00:01.999872",
        "meta_mean_motion": 15.82100121,
        "meta_eccentricity": 0.00014019,
        "meta_inclination": 42.9998,
        "meta_ra_of_asc_node": 121.7825,
        "meta_arg_of_pericenter": 270.8045,
        "meta_mean_anomaly": 25.924,
        "meta_ephemeris_type": 0,
        "meta_classification_type": "U",
        "meta_norad_cat_id": 67055,
        "meta_element_set_no": 999,
        "meta_rev_at_epoch": 189,
        "meta_bstar": -0.010593573,
        "meta_mean_motion_dot": -0.01948109,
        "meta_mean_motion_ddot": 0,
        "tle_line1": "1 67055U 25294AB  25356.58335648 -.01948109  00000+0 -10594-1 0  9991",
        "tle_line2": "2 67055  42.9998 121.7825 0001401 270.8045  25.9240 15.82100121  1895"
      },
      "geometry": {
        "type": "Point",
        "coordinates": [
          -35.86937095408812,
          -21.18517221947179
        ]
      }
    },
    {
      "type": "Feature",
      "properties": {
        "norad_id": 67056,
        "name": "STARLINK-36143",
        "group": "last-30-days",
        "lat": -24.928306550871888,
        "lon": -30.543312318045572,
        "alt_km": 330.94877269454355,
        "timestamp": "2025-12-22T22:44:19.654010+00:00",
        "meta_object_name": "STARLINK-36143",
        "meta_object_id": "2025-294AC",
        "meta_epoch": "2025-12-22T14:00:01.999872",
        "meta_mean_motion": 15.82083399,
        "meta_eccentricity": 0.00014213,
        "meta_inclination": 42.9999,
        "meta_ra_of_asc_node": 121.7667,
        "meta_arg_of_pericenter": 277.9721,
        "meta_mean_anomaly": 24.9625,
        "meta_ephemeris_type": 0,
        "meta_classification_type": "U",
        "meta_norad_cat_id": 67056,
        "meta_element_set_no": 999,
        "meta_rev_at_epoch": 189,
        "meta_bstar": -0.010618974,
        "meta_mean_motion_dot": -0.0195083,
        "meta_mean_motion_ddot": 0,
        "tle_line1": "1 67056U 25294AC  25356.58335648 -.01950830  00000+0 -10619-1 0  9994",
        "tle_line2": "2 67056  42.9999 121.7667 0001421 277.9721  24.9625 15.82083399  1895"
      },
      "geometry": {
        "type": "Point",
        "coordinates": [
          -30.543312318045572,
          -24.928306550871888
        ]
      }
    },
    {
      "type": "Feature",
      "properties": {
        "norad_id": 67057,
        "name": "STARLINK-36141",
        "group": "last-30-days",
        "lat": -23.65453461168555,
        "lon": -32.41846618545499,
        "alt_km": 330.7780124958208,
        "timestamp": "2025-12-22T22:44:19.654020+00:00",
        "meta_object_name": "STARLINK-36141",
        "meta_object_id": "2025-294AD",
        "meta_epoch": "2025-12-22T14:00:01.999872",
        "meta_mean_motion": 15.82093032,
        "meta_eccentricity": 0.00015073,
        "meta_inclination": 42.9998,
        "meta_ra_of_asc_node": 121.7726,
        "meta_arg_of_pericenter": 275.1264,
        "meta_mean_anomaly": 25.6595,
        "meta_ephemeris_type": 0,
        "meta_classification_type": "U",
        "meta_norad_cat_id": 67057,
        "meta_element_set_no": 999,
        "meta_rev_at_epoch": 180,
        "meta_bstar": -0.010623644,
        "meta_mean_motion_dot": -0.01952434,
        "meta_mean_motion_ddot": 0,
        "tle_line1": "1 67057U 25294AD  25356.58335648 -.01952434  00000+0 -10624-1 0  9993",
        "tle_line2": "2 67057  42.9998 121.7726 0001507 275.1264  25.6595 15.82093032  1808"
      },
      "geometry": {
        "type": "Point",
        "coordinates": [
          -32.41846618545499,
          -23.65453461168555
        ]
      }
    },
    {
      "type": "Feature",
      "properties": {
        "norad_id": 67058,
        "name": "STARLINK-35767",
        "group": "last-30-days",
        "lat": -22.455328478436392,
        "lon": -34.12304332714726,
        "alt_km": 330.6981460575862,
        "timestamp": "2025-12-22T22:44:19.654032+00:00",
        "meta_object_name": "STARLINK-35767",
        "meta_object_id": "2025-294AE",
        "meta_epoch": "2025-12-22T14:00:01.999872",
        "meta_mean_motion": 15.82092953,
        "meta_eccentricity": 0.00014471,
        "meta_inclination": 43,
        "meta_ra_of_asc_node": 121.7772,
        "meta_arg_of_pericenter": 273.895,
        "meta_mean_anomaly": 24.9074,
        "meta_ephemeris_type": 0,
        "meta_classification_type": "U",
        "meta_norad_cat_id": 67058,
        "meta_element_set_no": 999,
        "meta_rev_at_epoch": 169,
        "meta_bstar": -0.010584599,
        "meta_mean_motion_dot": -0.01946154,
        "meta_mean_motion_ddot": 0,
        "tle_line1": "1 67058U 25294AE  25356.58335648 -.01946154  00000+0 -10585-1 0  9992",
        "tle_line2": "2 67058  43.0000 121.7772 0001447 273.8950  24.9074 15.82092953  1698"
      },
      "geometry": {
        "type": "Point",
        "coordinates": [
          -34.12304332714726,
          -22.455328478436392
        ]
      }
    },
    {
      "type": "Feature",
      "properties": {
        "norad_id": 67059,
        "name": "HULIANWANG DIGUI-119",
        "group": "last-30-days",
        "lat": 27.676340224325575,
        "lon": -4.70323650237858,
        "alt_km": 810.4348863077257,
        "timestamp": "2025-12-22T22:44:19.654045+00:00",
        "meta_object_name": "HULIANWANG DIGUI-119",
        "meta_object_id": "2025-295A",
        "meta_epoch": "2025-12-22T14:08:47.960736",
        "meta_mean_motion": 14.24615369,
        "meta_eccentricity": 0.00140264,
        "meta_inclination": 50.0051,
        "meta_ra_of_asc_node": 330.6834,
        "meta_arg_of_pericenter": 281.1325,
        "meta_mean_anomaly": 78.8012,
        "meta_ephemeris_type": 0,
        "meta_classification_type": "U",
        "meta_norad_cat_id": 67059,
        "meta_element_set_no": 999,
        "meta_rev_at_epoch": 152,
        "meta_bstar": 8.6912074e-05,
        "meta_mean_motion_dot": 4.4e-07,
        "meta_mean_motion_ddot": 0,
        "tle_line1": "1 67059U 25295A   25356.58944399  .00000044  00000+0  86912-4 0  9999",
        "tle_line2": "2 67059  50.0051 330.6834 0014026 281.1325  78.8012 14.24615369  1527"
      },
      "geometry": {
        "type": "Point",
        "coordinates": [
          -4.70323650237858,
          27.676340224325575
        ]
      }
    },
    {
      "type": "Feature",
      "properties": {
        "norad_id": 67060,
        "name": "HULIANWANG DIGUI-120",
        "group": "last-30-days",
        "lat": 39.52756321810771,
        "lon": 12.981900689965524,
        "alt_km": 807.0734336479163,
        "timestamp": "2025-12-22T22:44:19.654056+00:00",
        "meta_object_name": "HULIANWANG DIGUI-120",
        "meta_object_id": "2025-295B",
        "meta_epoch": "2025-12-22T12:22:58.294272",
        "meta_mean_motion": 14.25710367,
        "meta_eccentricity": 0.0013184,
        "meta_inclination": 50.0058,
        "meta_ra_of_asc_node": 330.9619,
        "meta_arg_of_pericenter": 281.8733,
        "meta_mean_anomaly": 78.0702,
        "meta_ephemeris_type": 0,
        "meta_classification_type": "U",
        "meta_norad_cat_id": 67060,
        "meta_element_set_no": 999,
        "meta_rev_at_epoch": 151,
        "meta_bstar": -3.4313753e-05,
        "meta_mean_motion_dot": -2.42e-06,
        "meta_mean_motion_ddot": 0,
        "tle_line1": "1 67060U 25295B   25356.51595248 -.00000242  00000+0 -34314-4 0  9990",
        "tle_line2": "2 67060  50.0058 330.9619 0013184 281.8733  78.0702 14.25710367  1516"
      },
      "geometry": {
        "type": "Point",
        "coordinates": [
          12.981900689965524,
          39.52756321810771
        ]
      }
    }
  ]
}